METHANESAT              
1 59101U 24043D   25306.32475595  .00002973  00000+0  26737-3 0  9993
2 59101  97.8184  71.9365 0011733  52.3001 307.9282 14.96379974 90708
GOSAT-GW (IBUKI GW)     
1 64694U 25141A   25303.89662016  .00001396  00000+0  25435-3 0  9993
2 64694  98.0354 240.1997 0001417  83.5939 276.5427 14.67571851 18212
GHGSAT-C1               
1 46278U 20061G   25306.49351829  .00025702  00000+0  36548-3 0  9997
2 46278  97.2371  21.5144 0002797 136.8147 223.3328 15.56359155288051
GHGSAT-C12              
1 64529U 25135B   25306.49383571  .00004472  00000+0  22222-3 0  9997
2 64529  97.4593  58.9179 0004084 233.2626 126.8233 15.18159546 20400
GHGSAT-C13              
1 64548U 25135W   25306.47551054  .00004210  00000+0  20444-3 0  9993
2 64548  97.4618  59.1340 0001900 135.0803 225.0585 15.19001672 20412
GHGSAT-C2               
1 47509U 21006DA  25306.01528296  .00007581  00000+0  23051-3 0  9997
2 47509  97.2518 352.2042 0003813 262.5322  97.5488 15.34312147264974
GHGSAT-C3               
1 52737U 22057F   25306.48470566  .00008083  00000+0  27667-3 0  9995
2 52737  97.6307  79.7350 0006302 195.0380 165.0674 15.30497470190814
GHGSAT-C4               
1 52746U 22057Q   25306.56892914  .00008349  00000+0  28567-3 0  9994
2 52746  97.6234  78.8799 0006852 180.5637 179.5596 15.30491911190833
GHGSAT-C5               
1 52744U 22057N   25306.52049060  .00008400  00000+0  28750-3 0  9996
2 52744  97.6394  81.0819 0007373 192.5363 167.5695 15.30478780190820
GHGSAT-C6               
1 56204U 23054AC  25306.55561024  .00014851  00000+0  31264-3 0  9992
2 56204  97.3170 208.4174 0010112 134.7741 225.4332 15.45324472143369
GHGSAT-C7               
1 56209U 23054AH  25306.43937480  .00011613  00000+0  25597-3 0  9992
2 56209  97.3131 207.6402 0010124 130.6911 229.5218 15.44026687143334
GHGSAT-C8               
1 56186U 23054J   25306.52927567  .00015204  00000+0  32005-3 0  9993
2 56186  97.3137 207.8348 0006929 146.7823 213.3863 15.45351228143344
SENTINEL-5P             
1 42969U 17064A   25306.44856287  .00000113  00000+0  74612-4 0  9996
2 42969  98.7716 245.4033 0001103  78.0583 282.0716 14.19501463417391
ENMAP                   
1 52159U 22033C   25306.51493206  .00000724  00000+0  11524-3 0  9996
2 52159  97.9799  27.0094 0001005  87.2437 272.8887 14.74970405193245
PRISMA                  
1 44072U 19015A   25305.59199571  .00001325  00000+0  16669-3 0  9995
2 44072  97.8741  18.6335 0001355 110.5384 249.5976 14.83702164358304
SENTINEL-2A             
1 40697U 15028A   25306.50141142  .00000180  00000+0  85442-4 0  9991
2 40697  98.5734  19.6008 0001111  93.4457 266.6853 14.30818589541311
SENTINEL-2B             
1 42063U 17013A   25306.49419148  .00000177  00000+0  84011-4 0  9995
2 42063  98.5666  19.5219 0001005 101.6687 258.4608 14.30824701452227
SENTINEL-2C             
1 60989U 24157A   25306.45940921  .00000175  00000+0  83416-4 0  9999
2 60989  98.5645  19.5434 0000991  99.9549 260.1746 14.30819588 60561
LANDSAT 8               
1 39084U 13008A   25306.48472697  .00000525  00000+0  12650-3 0  9997
2 39084  98.2118  15.1425 0001265  88.2288 271.9056 14.57109533664883
LANDSAT 9               
1 49260U 21088A   25306.45040226  .00000495  00000+0  12002-3 0  9994
2 49260  98.2142  15.1357 0001326  84.3049 275.8300 14.57096203217980
